"Fireball MC IT20000000  42 " "Sol" 
 { 
	Class "asteroid"  
	Texture "asteroid.jpg"     
	Color [1.000 0.945 0.881]  
	BlendTexture true          
	Mesh "asteroid.cms"        
	Radius          38.94      
      
	EllipticalOrbit 
	{ 
	Epoch           2456514.2150 
	Period              3.8840 
	SemiMajorAxis       2.4709 
	Eccentricity        0.6222 
	Inclination         4.0520 
	AscendingNode     249.4001 
	ArgOfPericenter    37.4912 
	MeanAnomaly         0.0000 
	} 
 } 
   
"Fireball MC IT20000000  43 " "Sol" 
 { 
	Class "asteroid"  
	Texture "asteroid.jpg"     
	Color [1.000 0.945 0.881]  
	BlendTexture true          
	Mesh "asteroid.cms"        
	Radius          38.94      
      
	EllipticalOrbit 
	{ 
	Epoch           2456629.6798 
	Period              3.5686 
	SemiMajorAxis       2.3352 
	Eccentricity        0.5995 
	Inclination         4.1047 
	AscendingNode     249.4001 
	ArgOfPericenter    37.5049 
	MeanAnomaly         0.0000 
	} 
 } 
   
"Fireball MC IT20000000  44 " "Sol" 
 { 
	Class "asteroid"  
	Texture "asteroid.jpg"     
	Color [1.000 0.945 0.881]  
	BlendTexture true          
	Mesh "asteroid.cms"        
	Radius          38.94      
      
	EllipticalOrbit 
	{ 
	Epoch           2456248.6029 
	Period              4.6101 
	SemiMajorAxis       2.7700 
	Eccentricity        0.6643 
	Inclination         3.9723 
	AscendingNode     249.4001 
	ArgOfPericenter    37.5531 
	MeanAnomaly         0.0000 
	} 
 } 
   
"Fireball MC IT20000000  45 " "Sol" 
 { 
	Class "asteroid"  
	Texture "asteroid.jpg"     
	Color [1.000 0.945 0.881]  
	BlendTexture true          
	Mesh "asteroid.cms"        
	Radius          38.94      
      
	EllipticalOrbit 
	{ 
	Epoch           2456414.4947 
	Period              4.1566 
	SemiMajorAxis       2.5852 
	Eccentricity        0.6395 
	Inclination         4.0385 
	AscendingNode     249.4001 
	ArgOfPericenter    37.5239 
	MeanAnomaly         0.0000 
	} 
 } 
   
"Fireball MC IT20000000  46 " "Sol" 
 { 
	Class "asteroid"  
	Texture "asteroid.jpg"     
	Color [1.000 0.945 0.881]  
	BlendTexture true          
	Mesh "asteroid.cms"        
	Radius          38.94      
      
	EllipticalOrbit 
	{ 
	Epoch           2456243.0996 
	Period              4.6251 
	SemiMajorAxis       2.7760 
	Eccentricity        0.6649 
	Inclination         3.9703 
	AscendingNode     249.4001 
	ArgOfPericenter    37.5136 
	MeanAnomaly         0.0000 
	} 
 } 
   
"Fireball MC IT20000000  47 " "Sol" 
 { 
	Class "asteroid"  
	Texture "asteroid.jpg"     
	Color [1.000 0.945 0.881]  
	BlendTexture true          
	Mesh "asteroid.cms"        
	Radius          38.94      
      
	EllipticalOrbit 
	{ 
	Epoch           2456538.5169 
	Period              3.8176 
	SemiMajorAxis       2.4426 
	Eccentricity        0.6176 
	Inclination         4.0683 
	AscendingNode     249.4001 
	ArgOfPericenter    37.4721 
	MeanAnomaly         0.0000 
	} 
 } 
   
"Fireball MC IT20000000  48 " "Sol" 
 { 
	Class "asteroid"  
	Texture "asteroid.jpg"     
	Color [1.000 0.945 0.881]  
	BlendTexture true          
	Mesh "asteroid.cms"        
	Radius          38.94      
      
	EllipticalOrbit 
	{ 
	Epoch           2456268.9735 
	Period              4.5543 
	SemiMajorAxis       2.7476 
	Eccentricity        0.6614 
	Inclination         3.9760 
	AscendingNode     249.4001 
	ArgOfPericenter    37.5113 
	MeanAnomaly         0.0000 
	} 
 } 
   
"Fireball MC IT20000000  49 " "Sol" 
 { 
	Class "asteroid"  
	Texture "asteroid.jpg"     
	Color [1.000 0.945 0.881]  
	BlendTexture true          
	Mesh "asteroid.cms"        
	Radius          38.94      
      
	EllipticalOrbit 
	{ 
	Epoch           2456548.7970 
	Period              3.7896 
	SemiMajorAxis       2.4307 
	Eccentricity        0.6158 
	Inclination         4.0832 
	AscendingNode     249.4001 
	ArgOfPericenter    37.5349 
	MeanAnomaly         0.0000 
	} 
 } 
   
"Fireball MC IT20000000  50 " "Sol" 
 { 
	Class "asteroid"  
	Texture "asteroid.jpg"     
	Color [1.000 0.945 0.881]  
	BlendTexture true          
	Mesh "asteroid.cms"        
	Radius          38.94      
      
	EllipticalOrbit 
	{ 
	Epoch           2456999.0559 
	Period              2.5608 
	SemiMajorAxis       1.8718 
	Eccentricity        0.4956 
	Inclination         4.3137 
	AscendingNode     249.4001 
	ArgOfPericenter    37.5758 
	MeanAnomaly         0.0000 
	} 
 } 
   
"Fireball MC IT20000000  51 " "Sol" 
 { 
	Class "asteroid"  
	Texture "asteroid.jpg"     
	Color [1.000 0.945 0.881]  
	BlendTexture true          
	Mesh "asteroid.cms"        
	Radius          38.94      
      
	EllipticalOrbit 
	{ 
	Epoch           2456430.9200 
	Period              4.1117 
	SemiMajorAxis       2.5665 
	Eccentricity        0.6368 
	Inclination         4.0399 
	AscendingNode     249.4001 
	ArgOfPericenter    37.5124 
	MeanAnomaly         0.0000 
	} 
 } 
   
"Fireball MC IT20000000  52 " "Sol" 
 { 
	Class "asteroid"  
	Texture "asteroid.jpg"     
	Color [1.000 0.945 0.881]  
	BlendTexture true          
	Mesh "asteroid.cms"        
	Radius          38.94      
      
	EllipticalOrbit 
	{ 
	Epoch           2456304.3663 
	Period              4.4576 
	SemiMajorAxis       2.7085 
	Eccentricity        0.6564 
	Inclination         3.9935 
	AscendingNode     249.4001 
	ArgOfPericenter    37.5184 
	MeanAnomaly         0.0000 
	} 
 } 
   
"Fireball MC IT20000000  53 " "Sol" 
 { 
	Class "asteroid"  
	Texture "asteroid.jpg"     
	Color [1.000 0.945 0.881]  
	BlendTexture true          
	Mesh "asteroid.cms"        
	Radius          38.94      
      
	EllipticalOrbit 
	{ 
	Epoch           2456947.7471 
	Period              2.7006 
	SemiMajorAxis       1.9393 
	Eccentricity        0.5140 
	Inclination         4.2720 
	AscendingNode     249.4001 
	ArgOfPericenter    37.5429 
	MeanAnomaly         0.0000 
	} 
 } 
   
"Fireball MC IT20000000  54 " "Sol" 
 { 
	Class "asteroid"  
	Texture "asteroid.jpg"     
	Color [1.000 0.945 0.881]  
	BlendTexture true          
	Mesh "asteroid.cms"        
	Radius          38.94      
      
	EllipticalOrbit 
	{ 
	Epoch           2456763.2438 
	Period              3.2039 
	SemiMajorAxis       2.1733 
	Eccentricity        0.5685 
	Inclination         4.1633 
	AscendingNode     249.4001 
	ArgOfPericenter    37.5181 
	MeanAnomaly         0.0000 
	} 
 } 
   
"Fireball MC IT20000000  55 " "Sol" 
 { 
	Class "asteroid"  
	Texture "asteroid.jpg"     
	Color [1.000 0.945 0.881]  
	BlendTexture true          
	Mesh "asteroid.cms"        
	Radius          38.94      
      
	EllipticalOrbit 
	{ 
	Epoch           2456746.7193 
	Period              3.2490 
	SemiMajorAxis       2.1936 
	Eccentricity        0.5726 
	Inclination         4.1582 
	AscendingNode     249.4001 
	ArgOfPericenter    37.5122 
	MeanAnomaly         0.0000 
	} 
 } 
   
"Fireball MC IT20000000  56 " "Sol" 
 { 
	Class "asteroid"  
	Texture "asteroid.jpg"     
	Color [1.000 0.945 0.881]  
	BlendTexture true          
	Mesh "asteroid.cms"        
	Radius          38.94      
      
	EllipticalOrbit 
	{ 
	Epoch           2456602.3202 
	Period              3.6433 
	SemiMajorAxis       2.3677 
	Eccentricity        0.6052 
	Inclination         4.1056 
	AscendingNode     249.4001 
	ArgOfPericenter    37.4983 
	MeanAnomaly         0.0000 
	} 
 } 
   
"Fireball MC IT20000000  57 " "Sol" 
 { 
	Class "asteroid"  
	Texture "asteroid.jpg"     
	Color [1.000 0.945 0.881]  
	BlendTexture true          
	Mesh "asteroid.cms"        
	Radius          38.94      
      
	EllipticalOrbit 
	{ 
	Epoch           2457001.0757 
	Period              2.5553 
	SemiMajorAxis       1.8691 
	Eccentricity        0.4949 
	Inclination         4.3036 
	AscendingNode     249.4001 
	ArgOfPericenter    37.6112 
	MeanAnomaly         0.0000 
	} 
 } 
   
"Fireball MC IT20000000  58 " "Sol" 
 { 
	Class "asteroid"  
	Texture "asteroid.jpg"     
	Color [1.000 0.945 0.881]  
	BlendTexture true          
	Mesh "asteroid.cms"        
	Radius          38.94      
      
	EllipticalOrbit 
	{ 
	Epoch           2456606.3624 
	Period              3.6323 
	SemiMajorAxis       2.3629 
	Eccentricity        0.6043 
	Inclination         4.0928 
	AscendingNode     249.4001 
	ArgOfPericenter    37.5006 
	MeanAnomaly         0.0000 
	} 
 } 
   
"Fireball MC IT20000000  59 " "Sol" 
 { 
	Class "asteroid"  
	Texture "asteroid.jpg"     
	Color [1.000 0.945 0.881]  
	BlendTexture true          
	Mesh "asteroid.cms"        
	Radius          38.94      
      
	EllipticalOrbit 
	{ 
	Epoch           2456286.7638 
	Period              4.5057 
	SemiMajorAxis       2.7280 
	Eccentricity        0.6589 
	Inclination         3.9881 
	AscendingNode     249.4001 
	ArgOfPericenter    37.5234 
	MeanAnomaly         0.0000 
	} 
 } 
   
"Fireball MC IT20000000  60 " "Sol" 
 { 
	Class "asteroid"  
	Texture "asteroid.jpg"     
	Color [1.000 0.945 0.881]  
	BlendTexture true          
	Mesh "asteroid.cms"        
	Radius          38.94      
      
	EllipticalOrbit 
	{ 
	Epoch           2456516.4205 
	Period              3.8781 
	SemiMajorAxis       2.4684 
	Eccentricity        0.6219 
	Inclination         4.0631 
	AscendingNode     249.4001 
	ArgOfPericenter    37.5412 
	MeanAnomaly         0.0000 
	} 
 } 
   
"Fireball MC IT20000000  61 " "Sol" 
 { 
	Class "asteroid"  
	Texture "asteroid.jpg"     
	Color [1.000 0.945 0.881]  
	BlendTexture true          
	Mesh "asteroid.cms"        
	Radius          38.94      
      
	EllipticalOrbit 
	{ 
	Epoch           2456065.4883 
	Period              5.1107 
	SemiMajorAxis       2.9670 
	Eccentricity        0.6871 
	Inclination         3.9377 
	AscendingNode     249.4001 
	ArgOfPericenter    37.5171 
	MeanAnomaly         0.0000 
	} 
 } 
   
